{"fetched_at":"2026-07-07T07:58:50.970Z","source":"https://celestrak.org/NORAD/elements/gp.php?NAME=SENTINEL&FORMAT=JSON","constellation":"sentinel-2","records":[{"OBJECT_NAME":"SENTINEL-2A","OBJECT_ID":"2015-028A","EPOCH":"2026-07-06T20:45:38.965248","CLASSIFICATION_TYPE":"U","MEAN_MOTION":14.30821162,"ECCENTRICITY":0.0001223,"INCLINATION":98.5674,"RA_OF_ASC_NODE":262.4372,"ARG_OF_PERICENTER":95.0501,"MEAN_ANOMALY":265.0822,"EPHEMERIS_TYPE":0,"NORAD_CAT_ID":40697,"ELEMENT_SET_NO":999,"REV_AT_EPOCH":57654,"BSTAR":0.000036123,"MEAN_MOTION_DOT":5.1e-7,"MEAN_MOTION_DDOT":0},{"OBJECT_NAME":"SENTINEL-2B","OBJECT_ID":"2017-013A","EPOCH":"2026-07-06T20:35:17.314656","CLASSIFICATION_TYPE":"U","MEAN_MOTION":14.30813113,"ECCENTRICITY":0.000119,"INCLINATION":98.5681,"RA_OF_ASC_NODE":262.3546,"ARG_OF_PERICENTER":89.6491,"MEAN_ANOMALY":270.4828,"EPHEMERIS_TYPE":0,"NORAD_CAT_ID":42063,"ELEMENT_SET_NO":999,"REV_AT_EPOCH":48745,"BSTAR":-0.000010747,"MEAN_MOTION_DOT":-7.2e-7,"MEAN_MOTION_DDOT":0},{"OBJECT_NAME":"SENTINEL-2C","OBJECT_ID":"2024-157A","EPOCH":"2026-07-06T04:38:40.087392","CLASSIFICATION_TYPE":"U","MEAN_MOTION":14.30814003,"ECCENTRICITY":0.00009373,"INCLINATION":98.5686,"RA_OF_ASC_NODE":261.7062,"ARG_OF_PERICENTER":94.8836,"MEAN_ANOMALY":265.2454,"EPHEMERIS_TYPE":0,"NORAD_CAT_ID":60989,"ELEMENT_SET_NO":999,"REV_AT_EPOCH":9570,"BSTAR":0.000061530816,"MEAN_MOTION_DOT":0.00000118,"MEAN_MOTION_DDOT":0}]}
